COSMOS 1953             
1 19210U 88050A   15342.16262074  .00000647  00000-0  44317-4 0  9997
2 19210  82.5182 213.1045 0013921   6.5470 353.5935 15.04350573494064
SL-8 R/B                
1 19257U 88053B   15343.50682916  .00000198  00000-0  75179-4 0  9992
2 19257  74.0473 158.0346 0020620 189.5300 201.3819 14.37269329438931
COSMOS 1975             
1 19573U 88093A   15342.73370563  .00001738  00000-0  12605-3 0  9998
2 19573  82.5195 163.5322 0015572  36.6447 323.5841 15.03230161476183
SL-14 R/B               
1 19574U 88093B   15343.57475350  .00000233  00000-0  25567-4 0  9993
2 19574  82.5315 304.4778 0022577 144.7903 332.5810 14.83088625467099
SL-16 R/B               
1 19650U 88102B   15342.81036658  .00000279  00000-0  16612-3 0  9999
2 19650  70.9997 104.9722 0016023 304.0183  55.9418 14.15732878397243
INTERCOSMOS 24          
1 20261U 89080A   15342.51352827  .00000589  00000-0  17747-3 0  9995
2 20261  82.5935  10.5131 1204394 300.3676  48.3671 12.55660716196097
SL-14 R/B               
1 20262U 89080C   15342.29912659  .00000132  00000-0  30085-4 0  9991
2 20262  82.5959  52.7373 1238413  86.0926 288.0484 12.48761341192218
DELTA 1 R/B             
1 20323U 89089B   15342.62368783  .00000184  00000-0  57025-4 0  9998
2 20323  97.0720   7.3428 0072758  33.0855 327.4862 14.48060636374176
DELTA 2 R/B(1)          
1 20453U 90008B   15342.17186273  .00003318  00000-0  19630-3 0  9998
2 20453  35.6272 257.1927 0300516 223.6450 134.0130 14.80348783365520
COSMOS 2058             
1 20465U 90010A   15343.19290495  .00000923  00000-0  78054-4 0  9994
2 20465  82.4915  62.2162 0015954  12.3375 347.8234 14.96874453402145
SL-14 R/B               
1 20466U 90010B   15342.53602789  .00000216  00000-0  24693-4 0  9990
2 20466  82.5019 173.4014 0020839  10.9504 349.2159 14.81159290395095
SL-14 R/B               
1 20511U 90018B   15343.52657006  .00000252  00000-0  30269-4 0  9997
2 20511  82.5230 111.5368 0018665 132.0322 300.1015 14.79823854389882
HST                     
1 20580U 90037B   15342.53611954  .00001589  00000-0  89538-4 0  9993
2 20580  28.4702  83.9939 0002661 313.2600 145.9607 15.07954223206144
SL-16 R/B               
1 20625U 90046B   15342.15767410 -.00000230  00000-0 -94713-4 0  9995
2 20625  70.9990 238.1996 0016349 238.3035 228.1453 14.14585252319067
COSMOS 2084             
1 20663U 90055A   15343.35201323  .00001097  00000-0  11860-3 0  9997
2 20663  62.7943 282.3474 0103544  33.1394 327.6128 14.90869168376917
SL-6 R/B(2)             
1 20666U 90055D   15342.14327348  .00000813  00000-0  89029-4 0  9990
2 20666  62.7838 206.8235 0120830  53.9634 307.2584 14.91267874378080
SL-8 R/B                
1 20775U 90078B   15342.47204784  .00007257  00000-0  37859-3 0  9992
2 20775  82.9292 143.2787 0605369 252.7111 100.7007 14.26295792269262
SL-8 R/B                
1 21088U 91006B   15343.49654975  .00000036  00000-0  20569-4 0  9995
2 21088  82.9440  73.3220 0023858  77.1498 347.2173 13.77014515249126
OKEAN-3                 
1 21397U 91039A   15343.18448418  .00000912  00000-0  87441-4 0  9998
2 21397  82.5214 306.3640 0016698 299.3851  60.5700 14.91940088326862
COSMOS 2151             
1 21422U 91042A   15343.43881243  .00000693  00000-0  66746-4 0  9997
2 21422  82.5021  55.1756 0014072 356.0079   4.1025 14.91436859325657
SL-14 R/B               
1 21423U 91042B   15343.11453919  .00000196  00000-0  23108-4 0  9991
2 21423  82.4933 121.0299 0016180 271.9561  87.9798 14.79576482320358
ERS-1                   
1 21574U 91050A   15342.98471540  .00000201  00000-0  81110-4 0  9995
2 21574  98.3904 290.2751 0033031 175.3441 184.8060 14.37416652277681
ARIANE 40 R/B           
1 21610U 91050F   15343.09637137  .00000105  00000-0  47227-4 0  9999
2 21610  98.6835  22.7868 0003757 148.2166 238.7425 14.40679183280042
INTERCOSMOS 25          
1 21819U 91086A   15343.16901578  .00001379  00000-0  26565-3 0  9995
2 21819  82.5548  37.2326 1528030 189.4895 167.3951 12.03913879 45353
SL-14 R/B               
1 21820U 91086B   15341.83459075  .00000325  00000-0  61987-4 0  9997
2 21820  82.5618  87.2134 1578423 359.0943   0.7330 11.93057203 40315
SL-8 R/B                
1 21876U 92008B   15343.05205123 -.00000005  00000-0 -21706-4 0  9994
2 21876  82.9252 170.5254 0035427 145.1647 335.1909 13.75570447194925
SL-8 R/B                
1 21938U 92020B   15342.33098890  .00000037  00000-0  23072-4 0  9999
2 21938  82.9317  53.8804 0027985 307.2884  96.2039 13.75234196186753
SL-16 R/B               
1 22220U 92076B   15342.90854657  .00000110  00000-0  79408-4 0  9995
2 22220  70.9982 150.1540 0011521  32.0944 119.9916 14.16382759192007
SL-16 R/B               
1 22285U 92093B   15342.46042633 -.00000287  00000-0 -12360-3 0  9999
2 22285  71.0220 300.1361 0006790 261.7796  98.2556 14.14983927183787
COSMOS 2228             
1 22286U 92094A   15343.34359551  .00000735  00000-0  78583-4 0  9995
2 22286  82.5202 178.0227 0021072 162.4898 197.7050 14.87235988239860
SL-16 R/B               
1 22566U 93016B   15342.47738992 -.00000168  00000-0 -62231-4 0  9999
2 22566  71.0054 155.4594 0012695 262.0785  97.8896 14.14914335172525
COSMOS 2242             
1 22626U 93024A   15342.75830133  .00000709  00000-0  75770-4 0  9997
2 22626  82.5223 206.2367 0019450 163.1318 197.0551 14.87251754223436
SL-16 R/B               
1 22803U 93059B   15343.06941723 -.00000232  00000-0 -91833-4 0  9996
2 22803  70.9901 341.2684 0016255 160.3801 199.7951 14.16727132149514
ARIANE 40 R/B           
1 22830U 93061H   15342.47216697  .00000051  00000-0  36699-4 0  9994
2 22830  98.8774 334.0739 0011838 111.4428  50.6603 14.31385613158606
COSMOS 2278             
1 23087U 94023A   15342.87234558 -.00000281  00000-0 -12364-3 0  9997
2 23087  71.0537  81.6550 0009981 329.0743 165.8459 14.13693109115872
SL-16 R/B               
1 23088U 94023B   15342.64261761 -.00000174  00000-0 -65580-4 0  9999
2 23088  70.9996  10.1499 0005389 243.4959 116.5611 14.14628064116834
SL-16 R/B               
1 23343U 94074B   15343.22772038  .00000143  00000-0  28100-4 0  9999
2 23343  98.2097   1.7238 0008037  60.2331   0.8659 14.76607825134783
SL-16 R/B               
1 23405U 94077B   15341.94084201  .00000226  00000-0  14100-3 0  9992
2 23405  70.9835 306.9884 0000325  69.0573 291.0584 14.15171837 86423
ERS-2                   
1 23560U 95021A   15343.06871216  .00003611  00000-0  18529-3 0  9999
2 23560  98.5076 253.0858 0005003  43.8697 316.2930 15.17308180 90949
ARIANE 40+ R/B          
1 23561U 95021B   15342.87073664  .00000183  00000-0  76240-4 0  9995
2 23561  98.7508 321.4246 0007980 103.0859 281.7016 14.37675586 81318
SL-16 R/B               
1 23705U 95058B   15342.92383736  .00000182  00000-0  11854-3 0  9993
2 23705  71.0212 116.0781 0010568  61.5104 298.7082 14.15074484 38491
SL-16 R/B               
1 24298U 96051B   15342.64536045 -.00000006  00000-0  23161-4 0  9998
2 24298  70.8335 155.3142 0018589 283.9108  75.9945 14.12387688993239
ORBVIEW 2 (SEASTAR)     
1 24883U 97037A   15342.40411260  .00000132  00000-0  63943-4 0  9999
2 24883  98.5124  88.5024 0001645 340.5440  19.5682 14.33259764972147
SL-16 R/B               
1 25400U 98043G   15342.97888535  .00000020  00000-0  26255-4 0  9999
2 25400  98.4108 300.4089 0010831 120.7872 239.4376 14.25360228905839
SL-16 R/B               
1 25407U 98045B   15342.81313559  .00000317  00000-0  18595-3 0  9996
2 25407  71.0103 130.6043 0008935 321.7926  38.2563 14.15731623897435
ISS (ZARYA)             
1 25544U 98067A   15343.36031759  .00014532  00000-0  22248-3 0  9996
2 25544  51.6437 289.8421 0008016 255.4017 215.8571 15.54580653975294
SL-8 R/B                
1 25723U 99022C   15342.17465802  .00011932  00000-0  26008-3 0  9994
2 25723  48.4193 238.0870 0013664 239.9030 280.1668 15.44483962920103
CZ-4B R/B               
1 25732U 99025C   15343.45013492  .00000020  00000-0  31909-4 0  9996
2 25732  98.9567 328.3918 0036559 232.6493 290.6095 14.17591061857899
OKEAN-O                 
1 25860U 99039A   15343.13603328  .00000354  00000-0  58667-4 0  9991
2 25860  98.1186 311.7224 0001839  98.2416 319.2064 14.76220757881796
SL-16 R/B               
1 25861U 99039B   15342.07608150  .00000236  00000-0  39675-4 0  9999
2 25861  98.0263 301.4160 0017077  77.8022  60.6251 14.78236341883463
TERRA                   
1 25994U 99068A   15343.39392815  .00000234  00000-0  61939-4 0  9998
2 25994  98.2094  55.4302 0001286  94.1253 266.0102 14.57127636849733
SL-14 R/B               
1 26874U 01032B   15342.54656795  .00023155  00000-0  17989-3 0  9998
2 26874  82.4621 130.2843 0008473 205.2522 154.8327 15.71568793805457
ENVISAT                 
1 27386U 02009A   15343.17379270  .00000015  00000-0  19005-4 0  9994
2 27386  98.3120  38.1567 0001137  84.5552 275.5764 14.37845052721175
IDEFIX & ARIANE 42P R/B 
1 27422U 02021B   15342.67124384  .00000042  00000-0  32489-4 0  9998
2 27422  98.2427   2.6701 0013524  87.2308 273.0423 14.29221537707180
AQUA                    
1 27424U 02022A   15342.55200789  .00000431  00000-0  10570-3 0  9990
2 27424  98.2135 280.8396 0001829  68.6017  97.4756 14.57112580723210
CZ-4B R/B               
1 27432U 02024C   15342.51979103  .00000020  00000-0  33562-4 0  9991
2 27432  98.9092 304.3562 0050646 167.9593 327.3851 14.13995662700126
MIDORI II (ADEOS-II)    
1 27597U 02056A   15342.51082466  .00000160  00000-0  82270-4 0  9990
2 27597  98.3018 327.0458 0001639 123.9453  28.6603 14.27156026676015
H-2A R/B                
1 27601U 02056E   15343.46388640  .00000118  00000-0  58194-4 0  9995
2 27601  98.4401  57.4949 0073047 141.0916 285.7542 14.31665531678295
CZ-4B R/B               
1 28059U 03049C   15342.74887991  .00000122  00000-0  41398-4 0  9992
2 28059  98.6370 204.0501 0050885 141.6912 260.3717 14.52402728642903
CZ-2C R/B               
1 28222U 04012C   15342.89290278  .00002802  00000-0  18276-3 0  9992
2 28222  97.4480 302.1688 0048486 294.2658  87.7121 15.07736019636745
